{
  "norad_id": 63115,
  "name": "STARLINK-11597 [DTC]",
  "history": [
    {
      "epoch": "2026-03-28T19:04:30.230112",
      "apogee_km": 357.0260136308052,
      "perigee_km": 355.45757680939823,
      "latitude_deg": 39.80535776041714,
      "longitude_deg": -152.1997443200089,
      "semi_major_axis_km": 6734.378795220102,
      "eccentricity": 0.00011645,
      "inclination_deg": 43.0009,
      "raan_deg": 121.3732,
      "arg_perigee_deg": 350.2626,
      "mean_anomaly_deg": 9.8219,
      "mean_motion_rev_day": 15.70928615
    }
  ]
}